ONEWEB-0144             
1 47290U 20100AJ  25279.03955880  .00000161  00000+0  41215-3 0  9991
2 47290  87.8940  41.1238 0002007 103.3929 256.7424 13.12440961231237
ONEWEB-0145             
1 47291U 20100AK  25279.08659426  .00000191  00000+0  49611-3 0  9995
2 47291  87.8950  41.1477 0001774 100.9215 259.2114 13.12442378231435
ONEWEB-0146             
1 47292U 20100AL  25279.08335449 -.00000046  00000+0 -16428-3 0  9993
2 47292  87.8947  41.1348 0001409  94.9138 265.2151 13.12442437231344
ONEWEB-0147             
1 47293U 20100AM  25279.04928338 -.00000200  00000+0 -59139-3 0  9993
2 47293  87.8949  41.1199 0001700 109.7197 250.4114 13.12441315231232
ONEWEB-0115             
1 48042U 21025A   25279.19960927 -.00000185  00000+0 -54220-3 0  9997
2 48042  87.9056  10.6787 0001768  99.9732 260.1596 13.13469650220253
ONEWEB-0152             
1 48043U 21025B   25279.21314736 -.00000208  00000+0 -60428-3 0  9995
2 48043  87.9049  10.6896 0001677 102.0111 258.1206 13.13468929220212
ONEWEB-0153             
1 48044U 21025C   25279.19114522  .00000066  00000+0  14640-3 0  9999
2 48044  87.9057  10.6949 0001854 100.6376 259.4962 13.13468524220208
ONEWEB-0154             
1 48045U 21025D   25279.18776360  .00000158  00000+0  39761-3 0  9996
2 48045  87.9056  10.6918 0001815 103.6129 256.5202 13.13469683220167
